[{"OBJECT_NAME":"STARLINK-35064","OBJECT_ID":"2025-200M","EPOCH":"2026-03-09T17:06:40.437792","MEAN_MOTION":15.05638857,"ECCENTRICITY":9.683e-5,"INCLINATION":97.6022,"RA_OF_ASC_NODE":139.8093,"ARG_OF_PERICENTER":132.5439,"MEAN_ANOMALY":227.587,"EPHEMERIS_TYPE":0,"CLASSIFICATION_TYPE":"U","NORAD_CAT_ID":65531,"ELEMENT_SET_NO":999,"REV_AT_EPOCH":2913,"BSTAR":0.00027821109,"MEAN_MOTION_DOT":3.955e-5,"MEAN_MOTION_DDOT":0},{"OBJECT_NAME":"COSMOS 2251 DEB","OBJECT_ID":"1993-036HX","EPOCH":"2026-03-09T21:31:03.673056","MEAN_MOTION":15.04193551,"ECCENTRICITY":0.00046843,"INCLINATION":74.0171,"RA_OF_ASC_NODE":332.1487,"ARG_OF_PERICENTER":332.3762,"MEAN_ANOMALY":27.7177,"EPHEMERIS_TYPE":0,"CLASSIFICATION_TYPE":"U","NORAD_CAT_ID":34036,"ELEMENT_SET_NO":999,"REV_AT_EPOCH":89876,"BSTAR":0.0040391987,"MEAN_MOTION_DOT":0.00056541,"MEAN_MOTION_DDOT":0}]
